#dP2021  8 13 18  0  0.00000000      96 __u+U ITR00 EXT  IAC
## 2170 496800.00000000   900.00000000 59439 0.7500000000000
+  116   C06C07C08C09C10C11C12C13C14C16C19C20C21C22C23C24C25
+        C26C27C28C29C30C32C33C34C35C36C37C38C39C40C41C42C43
+        C44C45C46E01E02E03E04E05E07E08E09E11E12E13E14E15E18
+        E19E21E24E25E26E27E30E31E33E36G01G02G03G04G05G06G07
+        G08G09G10G12G13G14G15G16G17G18G19G20G21G22G23G24G25
+        G26G27G28G29G30G31G32J01J02J03R01R02R03R04R05R07R08
+        R09R11R12R13R14R15R16R17R18R19R20R21R22R24  0  0  0
++         7 11  9  8 10  9  9  8 10  8  9  8  9  8  9  7 10
++        10  8  9  9  9  8 10  9  8 10  8  9  9 12 10  9  9
++         8  7  8  7  8  8  7  9  8  8  8  8  8  9  8  8  8
++         7  7  7  7  7  8  8  9  7  8  8  8  7  9  8  7  7
++         8  9  6  8  7  7  8  7  6  7  7  7  9  8  6  7  6
++         7  7  7  8  7  7  7 10  9 11  8  8  8  8 10  7  9
++         9  8  9  9  8  7  9  8  8  9  8  9  9  9  0  0  0
%c M  cc GPS ccc cccc cccc cccc cccc ccccc ccccc ccccc ccccc
%c cc cc ccc ccc cccc cccc cccc cccc ccccc ccccc ccccc ccccc
%f  0.0000000  0.000000000  0.00000000000  0.000000000000000
%f  0.0000000  0.000000000  0.00000000000  0.000000000000000
%i    0    0    0    0      0      0      0      0         0
%i    0    0    0    0      0      0      0      0         0
/* IAC                                ULTRA-RAPID PREDICTION
/* S/V CLOCKS ARE ALIGNED TO GNSS TIME                      
/* G:C1WC2W R:C1PC2P E:C1XC5X C:C2IC6I J:C1CC2S             
/* PCV:IGS14_2163 OL/AL:FES2004  NONE     YN ORB:CoN CLK:CoN
*  2021 08 13 21 15  0.00000000
PC06  -3728.166526  38601.875874 -16317.314031    753.883893
PC07 -15724.778207  23129.335870  31742.763243     13.810354
PC08 -24684.973647  32587.459051 -10969.377970   -920.689059
PC09   2137.196443  41271.927542  -6792.164981    -24.703405
PC10   -836.664322  26978.018429  32672.499615     -8.967219
PC11  15542.369785   2708.279414 -22967.018310    515.023611
PC12  12106.199869  21096.703761 -13676.232335    783.292421
PC13 -12216.302159  33125.508945 -23161.945520    372.395277
PC14  26550.256587   4653.850630   7361.117882    723.262935
PC16  -5202.613606  37101.070949 -19016.418724   -862.649611
PC19 -22970.056108   2753.952488 -15570.334343    945.759117
PC20 -25990.859104 -10108.588167    279.478170   -820.638884
PC21  13597.382374  17642.290654 -16813.733069   -940.776683
PC22  -6506.246364  14483.727834 -22949.973983   -950.660364
PC23  14940.769807 -21249.927999 -10183.390894   -962.000868
PC24  18487.124849   4059.967172  20501.344273   -964.320349
PC25  23497.040391 -13446.646423   6728.363284   -870.815495
PC26   3780.459963  17105.000146  21726.083378    864.852969
PC27  -7413.894087 -26380.687491   5284.832720    580.388080
PC28   4952.045496 -24647.435864 -12102.326801    -38.908528
PC29 -14082.037854   9006.783706  22335.591609    432.905404
PC30 -15797.821513 -12646.265359  19214.248419    477.328741
PC32 -13640.776642 -17558.339840  16866.380740   -931.113828
PC33  23036.710868  -2836.437431  15508.259536   -956.829912
PC34  15951.877284  11794.431484 -19631.807424   -605.769685
PC35  -4379.682382  24596.593318  12394.671810   -141.143885
PC36 -23845.614791  12650.652642  -7044.648173   -743.204378
PC37  -2469.188294 -17660.335692 -21435.985217   -861.637846
PC38 -21975.178134  33820.247955 -12546.994310    168.371509
PC39  -7271.980918  33837.237046 -23964.304237     32.731097
PC40  -4939.888140  22042.511999  35648.572033    189.993988
PC41   6884.314687 -14397.642820  22936.868107   -961.131743
PC42  25825.715936  10547.684962  -1015.441483   -932.599464
PC43  14430.054171  -8353.055436 -22390.002108   -866.439990
PC44   8248.839363  26150.377646  -5117.360848    339.412367
PC45 -14797.455239  21271.456542  10395.645473    519.762463
PC46 -19169.885391  -2898.648928 -20069.292687    133.576602
PE01 -25886.195287  -4433.476807 -13645.177563  -1170.996768
PE02  25951.569526   4355.171648  13550.725676    239.692868
PE03  23200.358840  14650.557244  11124.534687   -463.354118
PE04 -18300.086953   3696.780886 -22963.355643   -834.337178
PE05  14542.808027  24686.140404  -7444.850454   -257.500770
PE07   2498.469753 -20221.277554  21472.662446   -573.406953
PE08  17984.133514  -4028.296781  23167.602338   5954.604754
PE09  -2106.857784  20276.698776 -21464.404868   5567.183692
PE11 -10204.936009  27748.496680   1335.873990   5582.097032
PE12 -17764.823114  14333.550690  18832.338707   5061.944976
PE13  10399.383606 -27652.400384  -1823.926048    420.236879
PE14 -16399.878164 -14926.281825   9228.415712  -1534.437146
PE15  17665.123471 -14427.058569 -18866.515449    798.125151
PE18  23430.448066  11224.930869 -19259.027386  -1682.835317
PE19 -22810.921790 -16508.367171  -9120.933541    351.447886
PE21  -9689.606420 -14559.543690 -23873.690262   -681.823583
PE24 -13894.835937  16591.189837  20198.801089  -1061.133158
PE25   9452.017704  14647.800948  23935.217450   -543.155101
PE26  -3619.148028 -24055.102026  16854.647253   1465.183463
PE27  12827.236896 -16770.232157 -20733.289950    -97.237354
PE30  28054.149730  -8345.152092  -4384.844221   2704.453207
PE31 -27627.250347   9124.135784   5456.323036   -484.377774
PE33 -14510.496046  -7256.942856  24755.485950   -466.322065
PE36   2969.472574  24565.223588 -16248.826143   -247.971670
PG01 -13973.878802  22271.756235   1804.639160    598.552889
PG02  16922.098000  -4785.377715 -19276.632162   -626.114962
PG03 -16048.609261  12184.911956 -17349.350182   -253.145111
PG04  -5489.530260  17570.472328 -19117.770510   -203.851726
PG05  24721.809446  -6557.636734   7308.364730    -51.027137
PG06  11868.319749   8768.140610 -22023.054072     55.546581
PG07  -3377.700700  23407.753251  11939.882893    224.297391
PG08 -13143.046335   7413.553060  21848.582966    -32.523468
PG09   5024.831355  23406.473343 -11544.278827   -358.707715
PG10 -15961.863180 -11881.128476  17845.006994   -181.875265
PG12  16917.673047 -11013.297109 -17441.124630    -82.478273
PG13  16272.961867   1502.914965  20829.121769    170.926315
PG14  15765.194625  12593.603592  17293.114977     24.510283
PG15  12606.501889  -9371.235277  21040.982605   -128.599183
PG16 -26691.995763   -366.273979   2250.900164   -373.215290
PG17  12902.246889  23164.711879  -1030.102096    488.895931
PG18   2314.997018 -22640.809806  13607.769878    333.039044
PG19  16403.917366  18237.125853 -10653.590903     39.221189
PG20  25968.886277   -808.544208  -4821.065961    519.668507
PG21 -16601.129633  17562.541910  11078.546743    137.038578
PG22 -21613.540325  10632.931641 -10787.569555   -539.041498
PG23  -3459.429512 -14885.384244  21703.778542     71.236633
PG24  15003.794271 -20469.205293   6840.107176    207.321960
PG25   5205.614995 -15121.912137 -21427.559668    190.616736
PG26 -24478.013042  -5224.253625  -9346.055556    122.269849
PG27 -17683.098463  -3890.561760  19379.151437   -177.836038
PG28  20308.973902  10845.130994  13619.366704    520.414299
PG29  -1676.589887 -22905.832975 -13331.578076   -395.742858
PG30   6532.298196  17016.013746  19310.882350   -461.862951
PG31 -13795.482951  -6850.114703 -21736.771527   -134.104595
PG32 -16132.003622 -20797.428637  -4092.064002      7.910889
PJ01 -24127.190727  17189.028596 -25412.942722   -438.921807
PJ02 -31487.332638  25555.929157  16393.599628     -1.533582
PJ03 -26488.789126  26220.299749  24816.992505     -0.795916
PR01  22676.577410   9535.076083   6775.310209     83.793167
PR02  12814.312221  -4052.950437  21706.241384    489.560318
PR03  -3731.810745 -14031.329300  21027.594588     41.175544
PR04 -17973.975245 -15916.993724   8653.269521    100.019235
PR05 -22229.098319  -9141.903848  -8566.835379     77.083373
PR07   4330.247662  14217.730998 -20682.574580    -41.677067
PR08  18047.133666  15874.522245  -8457.564601    -60.369739
PR09 -21074.001156  13841.547935   3621.640869      7.915113
PR11   7959.664752   7948.421573  22910.228414     46.355372
PR12  21125.731602  -4077.190585  13723.150812    253.393326
PR13  21440.441660 -13539.952299  -2796.993248    -59.133233
PR14   8881.061997 -15091.678632 -18537.626876     67.609397
PR15  -8454.489399  -7800.018255 -22739.625856    102.087462
PR16 -21566.523774   5337.234608 -12661.831235    -19.536838
PR17   2237.177245 -25194.590456  -3104.790590    449.528553
PR18  -5182.859299 -21125.018754  13369.366070     86.831340
PR19  -9586.850328  -7017.042816  22564.255096   -155.302485
PR20  -9309.386622  14498.459205  18796.458096    -54.100995
PR21  -1742.872550  25403.990421   1791.443537   -231.297668
PR22   5461.910903  20399.217712 -14261.855629   -127.710769
PR24   9249.802617 -15307.013838 -18167.495188     54.388194
EOF
